KUIPER-00125            
1 65954U 25228H   25297.25002315  .00053869  00000+0  15970-2 0  9995
2 65954  51.8796 258.9773 0005669 176.9917 242.6018 15.34300019  2667
KUIPER-00126            
1 65955U 25228J   25297.25002315  .00057040  00000+0  17043-2 0  9994
2 65955  51.8800 259.0046 0005981 190.7915 216.8007 15.34026260  2246
KUIPER-00127            
1 65956U 25228K   25297.25002315  .00059901  00000+0  17556-2 0  9992
2 65956  51.8804 258.9562 0006037 167.7726 263.8324 15.34612572  1676
KUIPER-00128            
1 65957U 25228L   25297.25002315  .00055776  00000+0  16477-2 0  9990
2 65957  51.8806 258.9759 0005796 172.3589 250.9703 15.34397202  2687
KUIPER-00129            
1 65958U 25228M   25297.25002315  .00058615  00000+0  17296-2 0  9996
2 65958  51.8805 258.9711 0005942 166.9673 258.3769 15.34408680  2600
KUIPER-00130            
1 65959U 25228N   25297.25002315  .00056132  00000+0  16672-2 0  9996
2 65959  51.8797 258.9860 0005264 182.7535 232.5760 15.34225928  2490
KUIPER-00134            
1 65960U 25228P   25297.25002315  .00055212  00000+0  16464-2 0  9995
2 65960  51.8794 258.9933 0005162 187.4582 224.3251 15.34108068  2108
KUIPER-00135            
1 65961U 25228Q   25297.25002315  .00054801  00000+0  16347-2 0  9999
2 65961  51.8809 258.9953 0005100 174.9506 239.1515 15.34101374  1993
